ONEWEB-0668             
1 56711U 23068B   24183.48927122  .00000143  00000+0  34085-3 0  9992
2 56711  87.9088  11.2601 0001183  94.8358 265.2908 13.16595674 58308
ONEWEB-0676             
1 56712U 23068C   24182.78551571 -.00000022  00000+0 -92024-4 0  9992
2 56712  87.9095  11.4068 0002357  96.6652 263.4747 13.16593767 57432
ONEWEB-0677             
1 56713U 23068D   24183.36088497  .00000123  00000+0  26960-3 0  9995
2 56713  87.9192  56.8886 0001847  92.0110 268.1234 13.20770369 56010
ONEWEB-0678             
1 56714U 23068E   24182.85206544  .00000058  00000+0  12004-3 0  9995
2 56714  87.9033  41.7154 0002123  78.0491 282.0877 13.15550247 55102
ONEWEB-0679             
1 56715U 23068F   24183.51459648  .00000108  00000+0  24847-3 0  9999
2 56715  87.9093  11.2650 0001705 113.0527 247.0784 13.16597217 58253
ONEWEB-0680             
1 56716U 23068G   24182.93354027 -.00000015  00000+0 -68952-4 0  9995
2 56716  87.9279  26.6009 0001016  96.0655 264.0594 13.21827523 56477
ONEWEB-0681             
1 56717U 23068H   24183.54937093  .00000025  00000+0  28203-4 0  9998
2 56717  87.9277  26.4582 0002892 101.4053 258.7406 13.21826257 57247
ONEWEB-0682             
1 56718U 23068J   24183.56273535 -.00000070  00000+0 -21980-3 0  9991
2 56718  87.9029  41.6153 0001333  96.4710 263.6572 13.15549982 56066
